{
  "norad_id": 57213,
  "name": "H2SAT (HEINRICH HERTZ)",
  "history": [
    {
      "epoch": "2026-04-13T02:08:49.387200Z",
      "apogee_km": 35791.84146097274,
      "perigee_km": 35782.80455958333,
      "latitude_deg": 0.016592986012293077,
      "longitude_deg": 0.7102582632123841,
      "height_km": 35787.729778672045,
      "semi_major_axis_km": 42165.46001027804,
      "eccentricity": 0.00010716,
      "inclination_deg": 0.02,
      "raan_deg": 212.0896,
      "arg_perigee_deg": 280.1411,
      "mean_anomaly_deg": 101.96,
      "mean_motion_rev_day": 1.00269188
    },
    {
      "epoch": "2026-04-14T19:13:03.160128Z",
      "apogee_km": 35790.5641762919,
      "perigee_km": 35784.045398991526,
      "latitude_deg": -0.04291306656274608,
      "longitude_deg": 0.6896070353746696,
      "height_km": 35783.56424395017,
      "semi_major_axis_km": 42165.441787641714,
      "eccentricity": 7.73e-05,
      "inclination_deg": 0.0182,
      "raan_deg": 215.7355,
      "arg_perigee_deg": 271.599,
      "mean_anomaly_deg": 4.5947,
      "mean_motion_rev_day": 1.00269253
    },
    {
      "epoch": "2026-04-15T15:45:07.687872Z",
      "apogee_km": 35790.78587349187,
      "perigee_km": 35784.326089327114,
      "latitude_deg": -0.02940221590576293,
      "longitude_deg": 0.6724150904049678,
      "height_km": 35784.732404476796,
      "semi_major_axis_km": 42165.69298140949,
      "eccentricity": 7.66e-05,
      "inclination_deg": 0.0162,
      "raan_deg": 215.3814,
      "arg_perigee_deg": 269.1117,
      "mean_anomaly_deg": 316.2896,
      "mean_motion_rev_day": 1.00268357
    },
    {
      "epoch": "2026-04-16T03:10:38.728416Z",
      "apogee_km": 35794.54662006926,
      "perigee_km": 35783.60001227118,
      "latitude_deg": 0.023033351966108024,
      "longitude_deg": 0.6833215282048279,
      "height_km": 35790.93476700751,
      "semi_major_axis_km": 42167.21031617022,
      "eccentricity": 0.0001298,
      "inclination_deg": 0.0159,
      "raan_deg": 218.6339,
      "arg_perigee_deg": 277.9499,
      "mean_anomaly_deg": 116.0398,
      "mean_motion_rev_day": 1.00262945
    },
    {
      "epoch": "2026-04-17T22:30:36.823680Z",
      "apogee_km": 35790.21192758123,
      "perigee_km": 35783.56166002848,
      "latitude_deg": -0.02896976312209857,
      "longitude_deg": 0.6849281524928172,
      "height_km": 35784.37317902628,
      "semi_major_axis_km": 42165.02379380486,
      "eccentricity": 7.886e-05,
      "inclination_deg": 0.0145,
      "raan_deg": 228.9088,
      "arg_perigee_deg": 262.6816,
      "mean_anomaly_deg": 52.8137,
      "mean_motion_rev_day": 1.00270744
    },
    {
      "epoch": "2026-04-18T05:21:18.576288Z",
      "apogee_km": 35790.357904727265,
      "perigee_km": 35783.67135498181,
      "latitude_deg": 0.032949193905530874,
      "longitude_deg": 0.6798459913992307,
      "height_km": 35789.576422200924,
      "semi_major_axis_km": 42165.15162985454,
      "eccentricity": 7.929e-05,
      "inclination_deg": 0.0141,
      "raan_deg": 230.0329,
      "arg_perigee_deg": 259.5907,
      "mean_anomaly_deg": 157.734,
      "mean_motion_rev_day": 1.00270288
    },
    {
      "epoch": "2026-04-19T19:52:38.690112Z",
      "apogee_km": 35789.627306666705,
      "perigee_km": 35784.095258892,
      "latitude_deg": -0.03544578468172099,
      "longitude_deg": 0.6891491313199394,
      "height_km": 35784.02336285339,
      "semi_major_axis_km": 42164.99828277935,
      "eccentricity": 6.56e-05,
      "inclination_deg": 0.0124,
      "raan_deg": 231.6717,
      "arg_perigee_deg": 243.1214,
      "mean_anomaly_deg": 31.9859,
      "mean_motion_rev_day": 1.00270835
    },
    {
      "epoch": "2026-04-20T13:49:33.579840Z",
      "apogee_km": 35789.3630663312,
      "perigee_km": 35783.4102788791,
      "latitude_deg": -0.0018042848609349676,
      "longitude_deg": 0.6896708207749088,
      "height_km": 35784.204200361644,
      "semi_major_axis_km": 42164.52367260515,
      "eccentricity": 7.059e-05,
      "inclination_deg": 0.016,
      "raan_deg": 226.9451,
      "arg_perigee_deg": 245.516,
      "mean_anomaly_deg": 304.2924,
      "mean_motion_rev_day": 1.00272528
    },
    {
      "epoch": "2026-04-21T06:56:23.544960Z",
      "apogee_km": 35789.47178455155,
      "perigee_km": 35784.412818336954,
      "latitude_deg": 0.03456092630694989,
      "longitude_deg": 0.6909108558754515,
      "height_km": 35788.573623806085,
      "semi_major_axis_km": 42165.07930144425,
      "eccentricity": 5.999e-05,
      "inclination_deg": 0.0156,
      "raan_deg": 229.286,
      "arg_perigee_deg": 233.3746,
      "mean_anomaly_deg": 211.4995,
      "mean_motion_rev_day": 1.00270546
    },
    {
      "epoch": "2026-04-22T13:44:25.398816Z",
      "apogee_km": 35790.26907376749,
      "perigee_km": 35783.22753792142,
      "latitude_deg": -0.0024090106215773227,
      "longitude_deg": 0.6842224992756224,
      "height_km": 35783.827223877575,
      "semi_major_axis_km": 42164.88530584446,
      "eccentricity": 8.35e-05,
      "inclination_deg": 0.0117,
      "raan_deg": 223.7945,
      "arg_perigee_deg": 240.3697,
      "mean_anomaly_deg": 313.2605,
      "mean_motion_rev_day": 1.00271238
    },
    {
      "epoch": "2026-04-23T04:48:38.767680Z",
      "apogee_km": 35790.32922842075,
      "perigee_km": 35783.06085467342,
      "latitude_deg": 0.022373045504201407,
      "longitude_deg": 0.6922800533624208,
      "height_km": 35789.80492302127,
      "semi_major_axis_km": 42164.83204154709,
      "eccentricity": 8.619e-05,
      "inclination_deg": 0.0109,
      "raan_deg": 216.5629,
      "arg_perigee_deg": 246.892,
      "mean_anomaly_deg": 180.6438,
      "mean_motion_rev_day": 1.00271428
    },
    {
      "epoch": "2026-04-24T18:47:26.657088Z",
      "apogee_km": 35786.121164190496,
      "perigee_km": 35782.461465412765,
      "latitude_deg": -0.033427483994355266,
      "longitude_deg": 0.6989478679448405,
      "height_km": 35782.027593691004,
      "semi_major_axis_km": 42162.42831480163,
      "eccentricity": 4.34e-05,
      "inclination_deg": 0.0161,
      "raan_deg": 218.5358,
      "arg_perigee_deg": 292.2867,
      "mean_anomaly_deg": 344.5407,
      "mean_motion_rev_day": 1.00280003
    },
    {
      "epoch": "2026-04-25T05:03:25.699968Z",
      "apogee_km": 35790.17084056091,
      "perigee_km": 35782.7836001495,
      "latitude_deg": 0.03162038439672855,
      "longitude_deg": 0.6990008926575275,
      "height_km": 35789.5409729648,
      "semi_major_axis_km": 42164.61422035521,
      "eccentricity": 8.76e-05,
      "inclination_deg": 0.0169,
      "raan_deg": 205.0936,
      "arg_perigee_deg": 278.1415,
      "mean_anomaly_deg": 166.542,
      "mean_motion_rev_day": 1.00272205
    },
    {
      "epoch": "2026-04-26T16:59:35.811168Z",
      "apogee_km": 35790.253225343135,
      "perigee_km": 35783.324684710205,
      "latitude_deg": -0.035410696992959546,
      "longitude_deg": 0.6967946461163782,
      "height_km": 35782.86245610331,
      "semi_major_axis_km": 42164.92595502667,
      "eccentricity": 8.216e-05,
      "inclination_deg": 0.0183,
      "raan_deg": 214.2692,
      "arg_perigee_deg": 263.2637,
      "mean_anomaly_deg": 352.7649,
      "mean_motion_rev_day": 1.00271093
    },
    {
      "epoch": "2026-04-27T05:20:38.796864Z",
      "apogee_km": 35791.14662752482,
      "perigee_km": 35782.70265228081,
      "latitude_deg": 0.03526546258892207,
      "longitude_deg": 0.7100689217535201,
      "height_km": 35790.454764155715,
      "semi_major_axis_km": 42165.061639902815,
      "eccentricity": 0.00010013,
      "inclination_deg": 0.0173,
      "raan_deg": 229.481,
      "arg_perigee_deg": 262.3438,
      "mean_anomaly_deg": 164.2527,
      "mean_motion_rev_day": 1.00270609
    },
    {
      "epoch": "2026-04-28T20:19:50.284128Z",
      "apogee_km": 35791.07622898551,
      "perigee_km": 35783.191323350366,
      "latitude_deg": -0.03776681120730935,
      "longitude_deg": 0.7045946846626425,
      "height_km": 35783.6071151622,
      "semi_major_axis_km": 42165.27077616794,
      "eccentricity": 9.35e-05,
      "inclination_deg": 0.0151,
      "raan_deg": 233.8776,
      "arg_perigee_deg": 248.9999,
      "mean_anomaly_deg": 39.594,
      "mean_motion_rev_day": 1.00269863
    },
    {
      "epoch": "2026-04-29T15:09:16.784064Z",
      "apogee_km": 35792.07913172775,
      "perigee_km": 35782.89545875624,
      "latitude_deg": -0.01597174508998166,
      "longitude_deg": 0.6797409277198362,
      "height_km": 35783.10048959348,
      "semi_major_axis_km": 42165.62429524199,
      "eccentricity": 0.0001089,
      "inclination_deg": 0.0131,
      "raan_deg": 236.3475,
      "arg_perigee_deg": 241.1955,
      "mean_anomaly_deg": 328.0526,
      "mean_motion_rev_day": 1.00268602
    },
    {
      "epoch": "2026-04-30T08:15:59.298912Z",
      "apogee_km": 35791.413420002325,
      "perigee_km": 35782.08991981964,
      "latitude_deg": 0.038405379216803294,
      "longitude_deg": 0.677808036166207,
      "height_km": 35789.4862625111,
      "semi_major_axis_km": 42164.888669910986,
      "eccentricity": 0.00011056,
      "inclination_deg": 0.0137,
      "raan_deg": 241.6858,
      "arg_perigee_deg": 235.8516,
      "mean_anomaly_deg": 225.4404,
      "mean_motion_rev_day": 1.00271226
    },
    {
      "epoch": "2026-05-01T16:46:45.683040Z",
      "apogee_km": 35791.10120507669,
      "perigee_km": 35783.090654124724,
      "latitude_deg": -0.023703210977155387,
      "longitude_deg": 0.6808471919648703,
      "height_km": 35782.62497298967,
      "semi_major_axis_km": 42165.23292960071,
      "eccentricity": 9.499e-05,
      "inclination_deg": 0.0133,
      "raan_deg": 250.5779,
      "arg_perigee_deg": 227.383,
      "mean_anomaly_deg": 354.0433,
      "mean_motion_rev_day": 1.00269998
    }
  ]
}